[
    {
        "Altitude(m)": 591644.5067962795,
        "Argument of Periapsis(deg)": -0.03013754771062987,
        "Eccentricity": 0.0,
        "Inclination(deg)": 97.0,
        "Latitude(deg)": -81.3125187019889,
        "Longitude(deg)": 53.809435680819945,
        "Mean Anomaly(deg)": 264.7775910255834,
        "RAAN(deg)": 30.00792940482468,
        "Satellite Name": "Starlink Shell 3 1677",
        "Satellite Number": 1677,
        "Semi-Major Axis(m)": 6938478.169268562,
        "Time(s)": 760
    },
    {
        "Altitude(m)": 591684.6510488845,
        "Argument of Periapsis(deg)": -0.030534094391032898,
        "Eccentricity": 0.0,
        "Inclination(deg)": 97.0,
        "Latitude(deg)": -81.66762089028896,
        "Longitude(deg)": 50.33287268779054,
        "Mean Anomaly(deg)": 265.4030672232884,
        "RAAN(deg)": 30.00803373909869,
        "Satellite Name": "Starlink Shell 3 1677",
        "Satellite Number": 1677,
        "Semi-Major Axis(m)": 6938478.169268562,
        "Time(s)": 770
    },
    {
        "Altitude(m)": 591719.7414755486,
        "Argument of Periapsis(deg)": -0.030930641071435925,
        "Eccentricity": 0.0,
        "Inclination(deg)": 97.0,
        "Latitude(deg)": -81.9906539766057,
        "Longitude(deg)": 46.56732541325062,
        "Mean Anomaly(deg)": 266.02854342099346,
        "RAAN(deg)": 30.008138073372695,
        "Satellite Name": "Starlink Shell 3 1677",
        "Satellite Number": 1677,
        "Semi-Major Axis(m)": 6938478.169268562,
        "Time(s)": 780
    },
    {
        "Altitude(m)": 591749.7638403156,
        "Argument of Periapsis(deg)": -0.031327187751838945,
        "Eccentricity": 0.0,
        "Inclination(deg)": 97.0,
        "Latitude(deg)": -82.27759669262264,
        "Longitude(deg)": 42.50925797645547,
        "Mean Anomaly(deg)": 266.6540196186985,
        "RAAN(deg)": 30.008242407646705,
        "Satellite Name": "Starlink Shell 3 1677",
        "Satellite Number": 1677,
        "Semi-Major Axis(m)": 6938478.169268562,
        "Time(s)": 790
    },
    {
        "Altitude(m)": 591774.7059596991,
        "Argument of Periapsis(deg)": -0.031723734432241975,
        "Eccentricity": 0.0,
        "Inclination(deg)": 97.0,
        "Latitude(deg)": -82.52429578243273,
        "Longitude(deg)": 38.16584937823339,
        "Mean Anomaly(deg)": 267.27949581640354,
        "RAAN(deg)": 30.008346741920718,
        "Satellite Name": "Starlink Shell 3 1677",
        "Satellite Number": 1677,
        "Semi-Major Axis(m)": 6938478.169268562,
        "Time(s)": 800
    },
    {
        "Altitude(m)": 591794.5577078093,
        "Argument of Periapsis(deg)": -0.032120281112645,
        "Eccentricity": 0.0,
        "Inclination(deg)": 97.0,
        "Latitude(deg)": -82.72665828179868,
        "Longitude(deg)": 33.557931703430995,
        "Mean Anomaly(deg)": 267.9049720141085,
        "RAAN(deg)": 30.00845107619472,
        "Satellite Name": "Starlink Shell 3 1677",
        "Satellite Number": 1677,
        "Semi-Major Axis(m)": 6938478.169268562,
        "Time(s)": 810
    },
    {
        "Altitude(m)": 591809.3110206221,
        "Argument of Periapsis(deg)": -0.03251682779304802,
        "Eccentricity": 0.0,
        "Inclination(deg)": 97.0,
        "Latitude(deg)": -82.8809049221689,
        "Longitude(deg)": 28.722083259832566,
        "Mean Anomaly(deg)": 268.53044821181356,
        "RAAN(deg)": 30.008555410468734,
        "Satellite Name": "Starlink Shell 3 1677",
        "Satellite Number": 1677,
        "Semi-Major Axis(m)": 6938478.169268562,
        "Time(s)": 820
    },
    {
        "Altitude(m)": 591818.9598993832,
        "Argument of Periapsis(deg)": -0.032913374473451044,
        "Eccentricity": 0.0,
        "Inclination(deg)": 97.0,
        "Latitude(deg)": -82.9838635160062,
        "Longitude(deg)": 23.711019379632774,
        "Mean Anomaly(deg)": 269.1559244095186,
        "RAAN(deg)": 30.008659744742744,
        "Satellite Name": "Starlink Shell 3 1677",
        "Satellite Number": 1677,
        "Semi-Major Axis(m)": 6938478.169268562,
        "Time(s)": 830
    },
    {
        "Altitude(m)": 591823.5004131336,
        "Argument of Periapsis(deg)": -0.03330992115385407,
        "Eccentricity": 0.0,
        "Inclination(deg)": 97.0,
        "Latitude(deg)": -83.03326108192968,
        "Longitude(deg)": 18.591575078937336,
        "Mean Anomaly(deg)": 269.7814006072237,
        "RAAN(deg)": 30.00876407901675,
        "Satellite Name": "Starlink Shell 3 1677",
        "Satellite Number": 1677,
        "Semi-Major Axis(m)": 6938478.169268562,
        "Time(s)": 840
    },
    {
        "Altitude(m)": 591822.9307003679,
        "Argument of Periapsis(deg)": -0.0337064678342571,
        "Eccentricity": 0.0,
        "Inclination(deg)": 97.0,
        "Latitude(deg)": -83.02795967981663,
        "Longitude(deg)": 13.440097481137599,
        "Mean Anomaly(deg)": 270.40687680492874,
        "RAAN(deg)": 30.00886841329076,
        "Satellite Name": "Starlink Shell 3 1677",
        "Satellite Number": 1677,
        "Semi-Major Axis(m)": 6938478.169268562,
        "Time(s)": 850
    },
    {
        "Altitude(m)": 591817.250969828,
        "Argument of Periapsis(deg)": -0.03410301451466012,
        "Eccentricity": 0.0,
        "Inclination(deg)": 97.0,
        "Latitude(deg)": -82.96808295374751,
        "Longitude(deg)": 8.335860993338942,
        "Mean Anomaly(deg)": 271.0323530026338,
        "RAAN(deg)": 30.00897274756477,
        "Satellite Name": "Starlink Shell 3 1677",
        "Satellite Number": 1677,
        "Semi-Major Axis(m)": 6938478.169268562,
        "Time(s)": 860
    },
    {
        "Altitude(m)": 591806.4635004139,
        "Argument of Periapsis(deg)": -0.034499561195063144,
        "Eccentricity": 0.0,
        "Inclination(deg)": 97.0,
        "Latitude(deg)": -82.85500210592826,
        "Longitude(deg)": 3.3538414636503573,
        "Mean Anomaly(deg)": 271.6578292003388,
        "RAAN(deg)": 30.009077081838775,
        "Satellite Name": "Starlink Shell 3 1677",
        "Satellite Number": 1677,
        "Semi-Major Axis(m)": 6938478.169268562,
        "Time(s)": 870
    },
    {
        "Altitude(m)": 591790.5726402132,
        "Argument of Periapsis(deg)": -0.03489610787546617,
        "Eccentricity": 0.0,
        "Inclination(deg)": 97.0,
        "Latitude(deg)": -82.69118486123173,
        "Longitude(deg)": -1.441572889346797,
        "Mean Anomaly(deg)": 272.28330539804386,
        "RAAN(deg)": 30.009181416112785,
        "Satellite Name": "Starlink Shell 3 1677",
        "Satellite Number": 1677,
        "Semi-Major Axis(m)": 6938478.169268562,
        "Time(s)": 880
    },
    {
        "Altitude(m)": 591769.5848047081,
        "Argument of Periapsis(deg)": -0.0352926545558692,
        "Eccentricity": 0.0,
        "Inclination(deg)": 97.0,
        "Latitude(deg)": -82.47994427796684,
        "Longitude(deg)": -6.00071013269352,
        "Mean Anomaly(deg)": 272.9087815957489,
        "RAAN(deg)": 30.0092857503868,
        "Satellite Name": "Starlink Shell 3 1677",
        "Satellite Number": 1677,
        "Semi-Major Axis(m)": 6938478.169268562,
        "Time(s)": 890
    },
    {
        "Altitude(m)": 591743.5084740367,
        "Argument of Periapsis(deg)": -0.035689201236272214,
        "Eccentricity": 0.0,
        "Inclination(deg)": 97.0,
        "Latitude(deg)": -82.22514234673538,
        "Longitude(deg)": -10.29013055145888,
        "Mean Anomaly(deg)": 273.53425779345395,
        "RAAN(deg)": 30.0093900846608,
        "Satellite Name": "Starlink Shell 3 1677",
        "Satellite Number": 1677,
        "Semi-Major Axis(m)": 6938478.169268562,
        "Time(s)": 900
    },
    {
        "Altitude(m)": 591712.354189457,
        "Argument of Periapsis(deg)": -0.036085747916675244,
        "Eccentricity": 0.0,
        "Inclination(deg)": 97.0,
        "Latitude(deg)": -81.93090171499553,
        "Longitude(deg)": -14.291842077432118,
        "Mean Anomaly(deg)": 274.159733991159,
        "RAAN(deg)": 30.009494418934814,
        "Satellite Name": "Starlink Shell 3 1677",
        "Satellite Number": 1677,
        "Semi-Major Axis(m)": 6938478.169268562,
        "Time(s)": 910
    },
    {
        "Altitude(m)": 591676.1345488792,
        "Argument of Periapsis(deg)": -0.03648229459707827,
        "Eccentricity": 0.0,
        "Inclination(deg)": 97.0,
        "Latitude(deg)": -81.60136307392632,
        "Longitude(deg)": -18.000978430926057,
        "Mean Anomaly(deg)": 274.785210188864,
        "RAAN(deg)": 30.009598753208827,
        "Satellite Name": "Starlink Shell 3 1677",
        "Satellite Number": 1677,
        "Semi-Major Axis(m)": 6938478.169268562,
        "Time(s)": 920
    },
    {
        "Altitude(m)": 591634.8642015881,
        "Argument of Periapsis(deg)": -0.0368788412774813,
        "Eccentricity": 0.0,
        "Inclination(deg)": 97.0,
        "Latitude(deg)": -81.24050552731147,
        "Longitude(deg)": -21.422787476932214,
        "Mean Anomaly(deg)": 275.41068638656907,
        "RAAN(deg)": 30.00970308748283,
        "Satellite Name": "Starlink Shell 3 1677",
        "Satellite Number": 1677,
        "Semi-Major Axis(m)": 6938478.169268562,
        "Time(s)": 930
    },
    {
        "Altitude(m)": 591588.5598420504,
        "Argument of Periapsis(deg)": -0.037275387957884314,
        "Eccentricity": 0.0,
        "Inclination(deg)": 97.0,
        "Latitude(deg)": -80.85203046400139,
        "Longitude(deg)": -24.56960096856542,
        "Mean Anomaly(deg)": 276.03616258427417,
        "RAAN(deg)": 30.009807421756843,
        "Satellite Name": "Starlink Shell 3 1677",
        "Satellite Number": 1677,
        "Semi-Major Axis(m)": 6938478.169268562,
        "Time(s)": 940
    }
]